{
    "links": {
        "self": "http://www.neowsapp.com/rest/v1/neo/3781000?api_key=iIulBulltgU6a56xZRHN4H3l9WmuAYTsLGpBGhQ2"
    },
    "id": "3781000",
    "neo_reference_id": "3781000",
    "name": "(2017 QZ16)",
    "designation": "2017 QZ16",
    "nasa_jpl_url": "http://ssd.jpl.nasa.gov/sbdb.cgi?sstr=3781000",
    "absolute_magnitude_h": 26.5,
    "estimated_diameter": {
        "kilometers": {
            "estimated_diameter_min": 0.0133215567,
            "estimated_diameter_max": 0.0297879063
        },
        "meters": {
            "estimated_diameter_min": 13.3215566698,
            "estimated_diameter_max": 29.7879062798
        },
        "miles": {
            "estimated_diameter_min": 0.008277629,
            "estimated_diameter_max": 0.0185093411
        },
        "feet": {
            "estimated_diameter_min": 43.7058959846,
            "estimated_diameter_max": 97.7293544391
        }
    },
    "is_potentially_hazardous_asteroid": false,
    "close_approach_data": [
        {
            "close_approach_date": "2017-08-05",
            "close_approach_date_full": "2017-Aug-05 14:15",
            "epoch_date_close_approach": 1501942500000,
            "relative_velocity": {
                "kilometers_per_second": "11.9102662443",
                "kilometers_per_hour": "42876.9584794714",
                "miles_per_hour": "26642.0745618693"
            },
            "miss_distance": {
                "astronomical": "0.0173445408",
                "lunar": "6.7470263712",
                "kilometers": "2594706.359808096",
                "miles": "1612275.7697638848"
            },
            "orbiting_body": "Earth"
        }
    ],
    "orbital_data": {
        "orbit_id": "1",
        "orbit_determination_date": "2017-08-24 08:42:05",
        "first_observation_date": "2017-08-17",
        "last_observation_date": "2017-08-21",
        "data_arc_in_days": 4,
        "observations_used": 9,
        "orbit_uncertainty": "8",
        "minimum_orbit_intersection": ".0167545",
        "jupiter_tisserand_invariant": "3.249",
        "epoch_osculation": "2457984.5",
        "eccentricity": ".6082085616142648",
        "semi_major_axis": "2.389441946083859",
        "inclination": "4.972565528855957",
        "ascending_node_longitude": "142.8741135039508",
        "orbital_period": "1349.096923476679",
        "perihelion_distance": ".9361628969954056",
        "perihelion_argument": "131.1511083107904",
        "aphelion_distance": "3.842720995172313",
        "perihelion_time": "2457941.228665566506",
        "mean_anomaly": "11.54674666065764",
        "mean_motion": ".2668451715628147",
        "equinox": "J2000",
        "orbit_class": {
            "orbit_class_type": "APO",
            "orbit_class_description": "Near-Earth asteroid orbits which cross the Earth’s orbit similar to that of 1862 Apollo",
            "orbit_class_range": "a (semi-major axis) > 1.0 AU; q (perihelion) < 1.017 AU"
        }
    },
    "is_sentry_object": false
}